UNKNOWN                 
1 81605U          26087.52579085 -.00000206  00000+0 -42447-3 0  9997
2 81605  56.4375 273.8864 0143032 283.8950  74.6101 12.81398895199763
UNKNOWN                 
1 81614U          26086.43348402  .00004630  00000+0  29136-1 0  9994
2 81614 101.8603  84.1717 0344126 314.3352  42.9975 12.38374123550932
UNKNOWN                 
1 81615U          26086.96959890  .00001286  00000+0  48876-3 0  9990
2 81615  65.8282 176.8396 0765776  87.2864 281.5504 13.34545153596905
UNKNOWN                 
1 81617U          26087.43506200  .00000374  00000+0  24754-2 0  9993
2 81617 101.2705 262.3206 0031105  31.8307 328.4641 12.57621032566390
UNKNOWN                 
1 81624U          26081.19399002  .00008983  00000+0  13866-2 0  9994
2 81624  66.9742 251.7983 0061001 156.1239 204.2735 14.72478615654347
UNKNOWN                 
1 81640U          26086.53859286  .00000212  00000+0  24580-3 0  9993
2 81640  65.8228 277.6815 0980272  34.8718 331.2674 12.57317564523251
UNKNOWN                 
1 81652U          26082.72476749  .00000668  00000+0  83656-3 0  9996
2 81652 102.1440 357.1585 0364055 133.7151 258.3180 13.44520324592229
UNKNOWN                 
1 81667U          26086.72000391  .00002397  00000+0  64289-3 0  9994
2 81667  74.0428 200.0023 0013633 107.1177 253.1476 14.48648825471844
UNKNOWN                 
1 81674U          26085.49233610  .00000695  00000+0  43677-3 0  9994
2 81674  66.8201 102.9571 0021939 163.6545 348.4074 14.10192012628344
UNKNOWN                 
1 81683U          26086.69361568  .00003317  00000+0  71356-3 0  9990
2 81683  81.2177 184.6229 0021982 336.0553  23.9619 14.58213365651159
UNKNOWN                 
1 81693U          26084.84648913  .00001459  00000+0  10572-1 0  9994
2 81693 101.1015 140.0188 0381529 246.6144 109.4358 12.26113276980407
UNKNOWN                 
1 81745U          26082.95236454  .00002458  00000+0  78079-3 0  9993
2 81745  71.0002 165.8799 0003190  31.2221 328.9104 14.40935306644327
