CCSDS_OMM_VERS = 2.0
CREATION_DATE  = 
ORIGINATOR     = 

OBJECT_NAME    = UNKNOWN
OBJECT_ID      = 
CENTER_NAME    = EARTH
REF_FRAME      = TEME
TIME_SYSTEM    = UTC
MEAN_ELEMENT_THEORY = SGP/SGP4

EPOCH          = 2026-03-28T12:37:08.329440
MEAN_MOTION    = 12.81398895
ECCENTRICITY   = .0143032
INCLINATION    = 56.4375
RA_OF_ASC_NODE = 273.8864
ARG_OF_PERICENTER = 283.8950
MEAN_ANOMALY   = 74.6101

EPHEMERIS_TYPE = 0
CLASSIFICATION_TYPE = U
NORAD_CAT_ID   = 81605
ELEMENT_SET_NO = 999
REV_AT_EPOCH   = 19976
BSTAR          = -.42447E-3
MEAN_MOTION_DOT = -.206E-5
MEAN_MOTION_DDOT = 0

CCSDS_OMM_VERS = 2.0
CREATION_DATE  = 
ORIGINATOR     = 

OBJECT_NAME    = UNKNOWN
OBJECT_ID      = 
CENTER_NAME    = EARTH
REF_FRAME      = TEME
TIME_SYSTEM    = UTC
MEAN_ELEMENT_THEORY = SGP/SGP4

EPOCH          = 2026-03-27T10:24:13.019328
MEAN_MOTION    = 12.38374123
ECCENTRICITY   = .0344126
INCLINATION    = 101.8603
RA_OF_ASC_NODE = 84.1717
ARG_OF_PERICENTER = 314.3352
MEAN_ANOMALY   = 42.9975

EPHEMERIS_TYPE = 0
CLASSIFICATION_TYPE = U
NORAD_CAT_ID   = 81614
ELEMENT_SET_NO = 999
REV_AT_EPOCH   = 55093
BSTAR          = .29136E-1
MEAN_MOTION_DOT = .463E-4
MEAN_MOTION_DDOT = 0

CCSDS_OMM_VERS = 2.0
CREATION_DATE  = 
ORIGINATOR     = 

OBJECT_NAME    = UNKNOWN
OBJECT_ID      = 
CENTER_NAME    = EARTH
REF_FRAME      = TEME
TIME_SYSTEM    = UTC
MEAN_ELEMENT_THEORY = SGP/SGP4

EPOCH          = 2026-03-27T23:16:13.344960
MEAN_MOTION    = 13.34545153
ECCENTRICITY   = .0765776
INCLINATION    = 65.8282
RA_OF_ASC_NODE = 176.8396
ARG_OF_PERICENTER = 87.2864
MEAN_ANOMALY   = 281.5504

EPHEMERIS_TYPE = 0
CLASSIFICATION_TYPE = U
NORAD_CAT_ID   = 81615
ELEMENT_SET_NO = 999
REV_AT_EPOCH   = 59690
BSTAR          = .48876E-3
MEAN_MOTION_DOT = .1286E-4
MEAN_MOTION_DDOT = 0

CCSDS_OMM_VERS = 2.0
CREATION_DATE  = 
ORIGINATOR     = 

OBJECT_NAME    = UNKNOWN
OBJECT_ID      = 
CENTER_NAME    = EARTH
REF_FRAME      = TEME
TIME_SYSTEM    = UTC
MEAN_ELEMENT_THEORY = SGP/SGP4

EPOCH          = 2026-03-28T10:26:29.356800
MEAN_MOTION    = 12.57621032
ECCENTRICITY   = .0031105
INCLINATION    = 101.2705
RA_OF_ASC_NODE = 262.3206
ARG_OF_PERICENTER = 31.8307
MEAN_ANOMALY   = 328.4641

EPHEMERIS_TYPE = 0
CLASSIFICATION_TYPE = U
NORAD_CAT_ID   = 81617
ELEMENT_SET_NO = 999
REV_AT_EPOCH   = 56639
BSTAR          = .24754E-2
MEAN_MOTION_DOT = .374E-5
MEAN_MOTION_DDOT = 0

CCSDS_OMM_VERS = 2.0
CREATION_DATE  = 
ORIGINATOR     = 

OBJECT_NAME    = UNKNOWN
OBJECT_ID      = 
CENTER_NAME    = EARTH
REF_FRAME      = TEME
TIME_SYSTEM    = UTC
MEAN_ELEMENT_THEORY = SGP/SGP4

EPOCH          = 2026-03-22T04:39:20.737728
MEAN_MOTION    = 14.72478615
ECCENTRICITY   = .0061001
INCLINATION    = 66.9742
RA_OF_ASC_NODE = 251.7983
ARG_OF_PERICENTER = 156.1239
MEAN_ANOMALY   = 204.2735

EPHEMERIS_TYPE = 0
CLASSIFICATION_TYPE = U
NORAD_CAT_ID   = 81624
ELEMENT_SET_NO = 999
REV_AT_EPOCH   = 65434
BSTAR          = .13866E-2
MEAN_MOTION_DOT = .8983E-4
MEAN_MOTION_DDOT = 0

CCSDS_OMM_VERS = 2.0
CREATION_DATE  = 
ORIGINATOR     = 

OBJECT_NAME    = UNKNOWN
OBJECT_ID      = 
CENTER_NAME    = EARTH
REF_FRAME      = TEME
TIME_SYSTEM    = UTC
MEAN_ELEMENT_THEORY = SGP/SGP4

EPOCH          = 2026-03-27T12:55:34.423104
MEAN_MOTION    = 12.57317564
ECCENTRICITY   = .0980272
INCLINATION    = 65.8228
RA_OF_ASC_NODE = 277.6815
ARG_OF_PERICENTER = 34.8718
MEAN_ANOMALY   = 331.2674

EPHEMERIS_TYPE = 0
CLASSIFICATION_TYPE = U
NORAD_CAT_ID   = 81640
ELEMENT_SET_NO = 999
REV_AT_EPOCH   = 52325
BSTAR          = .2458E-3
MEAN_MOTION_DOT = .212E-5
MEAN_MOTION_DDOT = 0

CCSDS_OMM_VERS = 2.0
CREATION_DATE  = 
ORIGINATOR     = 

OBJECT_NAME    = UNKNOWN
OBJECT_ID      = 
CENTER_NAME    = EARTH
REF_FRAME      = TEME
TIME_SYSTEM    = UTC
MEAN_ELEMENT_THEORY = SGP/SGP4

EPOCH          = 2026-03-23T17:23:39.911136
MEAN_MOTION    = 13.44520324
ECCENTRICITY   = .0364055
INCLINATION    = 102.1440
RA_OF_ASC_NODE = 357.1585
ARG_OF_PERICENTER = 133.7151
MEAN_ANOMALY   = 258.3180

EPHEMERIS_TYPE = 0
CLASSIFICATION_TYPE = U
NORAD_CAT_ID   = 81652
ELEMENT_SET_NO = 999
REV_AT_EPOCH   = 59222
BSTAR          = .83656E-3
MEAN_MOTION_DOT = .668E-5
MEAN_MOTION_DDOT = 0

CCSDS_OMM_VERS = 2.0
CREATION_DATE  = 
ORIGINATOR     = 

OBJECT_NAME    = UNKNOWN
OBJECT_ID      = 
CENTER_NAME    = EARTH
REF_FRAME      = TEME
TIME_SYSTEM    = UTC
MEAN_ELEMENT_THEORY = SGP/SGP4

EPOCH          = 2026-03-27T17:16:48.337824
MEAN_MOTION    = 14.48648825
ECCENTRICITY   = .0013633
INCLINATION    = 74.0428
RA_OF_ASC_NODE = 200.0023
ARG_OF_PERICENTER = 107.1177
MEAN_ANOMALY   = 253.1476

EPHEMERIS_TYPE = 0
CLASSIFICATION_TYPE = U
NORAD_CAT_ID   = 81667
ELEMENT_SET_NO = 999
REV_AT_EPOCH   = 47184
BSTAR          = .64289E-3
MEAN_MOTION_DOT = .2397E-4
MEAN_MOTION_DDOT = 0

CCSDS_OMM_VERS = 2.0
CREATION_DATE  = 
ORIGINATOR     = 

OBJECT_NAME    = UNKNOWN
OBJECT_ID      = 
CENTER_NAME    = EARTH
REF_FRAME      = TEME
TIME_SYSTEM    = UTC
MEAN_ELEMENT_THEORY = SGP/SGP4

EPOCH          = 2026-03-26T11:48:57.839040
MEAN_MOTION    = 14.10192012
ECCENTRICITY   = .0021939
INCLINATION    = 66.8201
RA_OF_ASC_NODE = 102.9571
ARG_OF_PERICENTER = 163.6545
MEAN_ANOMALY   = 348.4074

EPHEMERIS_TYPE = 0
CLASSIFICATION_TYPE = U
NORAD_CAT_ID   = 81674
ELEMENT_SET_NO = 999
REV_AT_EPOCH   = 62834
BSTAR          = .43677E-3
MEAN_MOTION_DOT = .695E-5
MEAN_MOTION_DDOT = 0

CCSDS_OMM_VERS = 2.0
CREATION_DATE  = 
ORIGINATOR     = 

OBJECT_NAME    = UNKNOWN
OBJECT_ID      = 
CENTER_NAME    = EARTH
REF_FRAME      = TEME
TIME_SYSTEM    = UTC
MEAN_ELEMENT_THEORY = SGP/SGP4

EPOCH          = 2026-03-27T16:38:48.394752
MEAN_MOTION    = 14.58213365
ECCENTRICITY   = .0021982
INCLINATION    = 81.2177
RA_OF_ASC_NODE = 184.6229
ARG_OF_PERICENTER = 336.0553
MEAN_ANOMALY   = 23.9619

EPHEMERIS_TYPE = 0
CLASSIFICATION_TYPE = U
NORAD_CAT_ID   = 81683
ELEMENT_SET_NO = 999
REV_AT_EPOCH   = 65115
BSTAR          = .71356E-3
MEAN_MOTION_DOT = .3317E-4
MEAN_MOTION_DDOT = 0

CCSDS_OMM_VERS = 2.0
CREATION_DATE  = 
ORIGINATOR     = 

OBJECT_NAME    = UNKNOWN
OBJECT_ID      = 
CENTER_NAME    = EARTH
REF_FRAME      = TEME
TIME_SYSTEM    = UTC
MEAN_ELEMENT_THEORY = SGP/SGP4

EPOCH          = 2026-03-25T20:18:56.660832
MEAN_MOTION    = 12.26113276
ECCENTRICITY   = .0381529
INCLINATION    = 101.1015
RA_OF_ASC_NODE = 140.0188
ARG_OF_PERICENTER = 246.6144
MEAN_ANOMALY   = 109.4358

EPHEMERIS_TYPE = 0
CLASSIFICATION_TYPE = U
NORAD_CAT_ID   = 81693
ELEMENT_SET_NO = 999
REV_AT_EPOCH   = 98040
BSTAR          = .10572E-1
MEAN_MOTION_DOT = .1459E-4
MEAN_MOTION_DDOT = 0

CCSDS_OMM_VERS = 2.0
CREATION_DATE  = 
ORIGINATOR     = 

OBJECT_NAME    = UNKNOWN
OBJECT_ID      = 
CENTER_NAME    = EARTH
REF_FRAME      = TEME
TIME_SYSTEM    = UTC
MEAN_ELEMENT_THEORY = SGP/SGP4

EPOCH          = 2026-03-23T22:51:24.296256
MEAN_MOTION    = 14.40935306
ECCENTRICITY   = .000319
INCLINATION    = 71.0002
RA_OF_ASC_NODE = 165.8799
ARG_OF_PERICENTER = 31.2221
MEAN_ANOMALY   = 328.9104

EPHEMERIS_TYPE = 0
CLASSIFICATION_TYPE = U
NORAD_CAT_ID   = 81745
ELEMENT_SET_NO = 999
REV_AT_EPOCH   = 64432
BSTAR          = .78079E-3
MEAN_MOTION_DOT = .2458E-4
MEAN_MOTION_DDOT = 0

